start=new Date('2022-10-14T00:00:00.000Z').valueOf();
sats=[{"DECAY_DATE":null,"CLASSIFICATION_TYPE":"U","MEAN_MOTION_DDOT":"0.0000000000000","COUNTRY_CODE":"US","ARG_OF_PERICENTER":"44.8433","REV_AT_EPOCH":"11218","FILE":"3609636","EPHEMERIS_TYPE":"0","OBJECT_ID":"2020-070B","SITE":"AFETR","PERIAPSIS":"545.699","SEMIMAJOR_AXIS":"6925.371","APOAPSIS":"548.773","MEAN_ELEMENT_THEORY":"SGP4","MEAN_MOTION_DOT":"0.00003293","NORAD_CAT_ID":"46533","TIME_SYSTEM":"UTC","LAUNCH_DATE":"2020-10-06","CENTER_NAME":"EARTH","RA_OF_ASC_NODE":"355.7797","GP_ID":"215025102","REF_FRAME":"TEME","ELEMENT_SET_NO":"999","ECCENTRICITY":"0.00022190","BSTAR":"0.00023994000000","OBJECT_NAME":"STARLINK-1648","EPOCH":"2022-10-13T21:13:45.945984","MEAN_MOTION":"15.06392666","RCS_SIZE":"LARGE","INCLINATION":"53.0565","TLE_LINE2":"2 46533  53.0565 355.7797 0002219  44.8433 315.2735 15.06392666112183","MEAN_ANOMALY":"315.2735","PERIOD":"95.593","TLE_LINE1":"1 46533U 20070B   22286.88455956  .00003293  00000-0  23994-3 0  9997","OBJECT_TYPE":"PAYLOAD"},{"SEMIMAJOR_AXIS":"6925.372","PERIAPSIS":"545.858","SITE":"AFETR","EPHEMERIS_TYPE":"0","OBJECT_ID":"2020-070C","REV_AT_EPOCH":"11212","FILE":"3609209","ARG_OF_PERICENTER":"33.9408","COUNTRY_CODE":"US","MEAN_MOTION_DDOT":"0.0000000000000","CLASSIFICATION_TYPE":"U","DECAY_DATE":null,"RA_OF_ASC_NODE":"357.6626","LAUNCH_DATE":"2020-10-06","CENTER_NAME":"EARTH","NORAD_CAT_ID":"46534","TIME_SYSTEM":"UTC","MEAN_MOTION_DOT":"0.00003535","MEAN_ELEMENT_THEORY":"SGP4","APOAPSIS":"548.617","RCS_SIZE":"LARGE","MEAN_MOTION":"15.06392295","EPOCH":"2022-10-13T11:13:59.278944","OBJECT_NAME":"STARLINK-1659","BSTAR":"0.00025618000000","ECCENTRICITY":"0.00019920","ELEMENT_SET_NO":"999","REF_FRAME":"TEME","GP_ID":"214990550","OBJECT_TYPE":"PAYLOAD","TLE_LINE1":"1 46534U 20070C   22286.46804721  .00003535  00000-0  25618-3 0  9994","PERIOD":"95.593","MEAN_ANOMALY":"326.1708","INCLINATION":"53.0550","TLE_LINE2":"2 46534  53.0550 357.6626 0001992  33.9408 326.1708 15.06392295112121"},{"APOAPSIS":"548.455","CENTER_NAME":"EARTH","LAUNCH_DATE":"2020-10-06","RA_OF_ASC_NODE":"357.7199","MEAN_ELEMENT_THEORY":"SGP4","MEAN_MOTION_DOT":"0.00010561","TIME_SYSTEM":"UTC","NORAD_CAT_ID":"46535","COUNTRY_CODE":"US","ARG_OF_PERICENTER":"53.7727","DECAY_DATE":null,"CLASSIFICATION_TYPE":"U","MEAN_MOTION_DDOT":"0.0000000000000","SITE":"AFETR","SEMIMAJOR_AXIS":"6925.317","PERIAPSIS":"545.910","FILE":"3609209","REV_AT_EPOCH":"11211","EPHEMERIS_TYPE":"0","OBJECT_ID":"2020-070D","TLE_LINE2":"2 46535  53.0540 357.7199 0001837  53.7727 306.3432 15.06410151112114","INCLINATION":"53.0540","MEAN_ANOMALY":"306.3432","PERIOD":"95.591","OBJECT_TYPE":"PAYLOAD","TLE_LINE1":"1 46535U 20070D   22286.45698456  .00010561  00000-0  72663-3 0  9999","ELEMENT_SET_NO":"999","ECCENTRICITY":"0.00018370","GP_ID":"214990800","REF_FRAME":"TEME","MEAN_MOTION":"15.06410151","RCS_SIZE":"LARGE","BSTAR":"0.00072663000000","OBJECT_NAME":"STARLINK-1663","EPOCH":"2022-10-13T10:58:03.465984"},{"ELEMENT_SET_NO":"999","ECCENTRICITY":"0.00017070","GP_ID":"215024368","REF_FRAME":"TEME","RCS_SIZE":"LARGE","MEAN_MOTION":"15.06391072","OBJECT_NAME":"STARLINK-1672","BSTAR":"0.00015787000000","EPOCH":"2022-10-13T14:46:17.672448","INCLINATION":"53.0578","TLE_LINE2":"2 46537  53.0578 356.9976 0001707  45.0169 315.0958 15.06391072112144","MEAN_ANOMALY":"315.0958","PERIOD":"95.593","TLE_LINE1":"1 46537U 20070F   22286.61548232  .00002070  00000-0  15787-3 0  9995","OBJECT_TYPE":"PAYLOAD","COUNTRY_CODE":"US","ARG_OF_PERICENTER":"45.0169","CLASSIFICATION_TYPE":"U","DECAY_DATE":null,"MEAN_MOTION_DDOT":"0.0000000000000","SITE":"AFETR","SEMIMAJOR_AXIS":"6925.376","PERIAPSIS":"546.059","REV_AT_EPOCH":"11214","FILE":"3609636","OBJECT_ID":"2020-070F","EPHEMERIS_TYPE":"0","APOAPSIS":"548.423","CENTER_NAME":"EARTH","LAUNCH_DATE":"2020-10-06","RA_OF_ASC_NODE":"356.9976","MEAN_ELEMENT_THEORY":"SGP4","TIME_SYSTEM":"UTC","NORAD_CAT_ID":"46537","MEAN_MOTION_DOT":"0.00002070"},{"EPHEMERIS_TYPE":"0","OBJECT_ID":"2020-070G","FILE":"3609209","REV_AT_EPOCH":"11211","PERIAPSIS":"545.910","SEMIMAJOR_AXIS":"6925.380","SITE":"AFETR","MEAN_MOTION_DDOT":"0.0000000000000","DECAY_DATE":null,"CLASSIFICATION_TYPE":"U","ARG_OF_PERICENTER":"47.5361","COUNTRY_CODE":"US","MEAN_MOTION_DOT":"0.00002463","NORAD_CAT_ID":"46538","TIME_SYSTEM":"UTC","MEAN_ELEMENT_THEORY":"SGP4","RA_OF_ASC_NODE":"357.6890","CENTER_NAME":"EARTH","LAUNCH_DATE":"2020-10-06","APOAPSIS":"548.579","EPOCH":"2022-10-13T11:03:21.600288","BSTAR":"0.00018426000000","OBJECT_NAME":"STARLINK-1678","MEAN_MOTION":"15.06389891","RCS_SIZE":"LARGE","REF_FRAME":"TEME","GP_ID":"214991800","ELEMENT_SET_NO":"999","ECCENTRICITY":"0.00019270","TLE_LINE1":"1 46538U 20070G   22286.46066667  .00002463  00000-0  18426-3 0  9995","OBJECT_TYPE":"PAYLOAD","MEAN_ANOMALY":"312.5790","PERIOD":"95.593","TLE_LINE2":"2 46538  53.0554 357.6890 0001927  47.5361 312.5790 15.06389891112116","INCLINATION":"53.0554"},{"OBJECT_TYPE":"PAYLOAD","TLE_LINE1":"1 46541U 20070K   22286.83847982  .00001895  00000-0  14613-3 0  9999","MEAN_ANOMALY":"306.2391","PERIOD":"95.592","TLE_LINE2":"2 46541  53.0534 336.0068 0001826  53.8767 306.2391 15.06394674112453","INCLINATION":"53.0534","EPOCH":"2022-10-13T20:07:24.656448","BSTAR":"0.00014613000000","OBJECT_NAME":"STARLINK-1687","MEAN_MOTION":"15.06394674","RCS_SIZE":"LARGE","REF_FRAME":"TEME","GP_ID":"215023367","ELEMENT_SET_NO":"999","ECCENTRICITY":"0.00018260","MEAN_MOTION_DOT":"0.00001895","TIME_SYSTEM":"UTC","NORAD_CAT_ID":"46541","MEAN_ELEMENT_THEORY":"SGP4","RA_OF_ASC_NODE":"336.0068","LAUNCH_DATE":"2020-10-06","CENTER_NAME":"EARTH","APOAPSIS":"548.494","EPHEMERIS_TYPE":"0","OBJECT_ID":"2020-070K","FILE":"3609636","REV_AT_EPOCH":"11245","PERIAPSIS":"545.965","SEMIMAJOR_AXIS":"6925.365","SITE":"AFETR","MEAN_MOTION_DDOT":"0.0000000000000","CLASSIFICATION_TYPE":"U","DECAY_DATE":null,"ARG_OF_PERICENTER":"53.8767","COUNTRY_CODE":"US"},{"OBJECT_TYPE":"PAYLOAD","TLE_LINE1":"1 46542U 20070L   22286.50857789  .00002301  00000-0  17336-3 0  9998","MEAN_ANOMALY":"317.0314","PERIOD":"95.593","INCLINATION":"53.0572","TLE_LINE2":"2 46542  53.0572 357.4846 0001787  43.0815 317.0314 15.06385283112123","EPOCH":"2022-10-13T12:12:21.129696","OBJECT_NAME":"STARLINK-1692","BSTAR":"0.00017336000000","RCS_SIZE":"LARGE","MEAN_MOTION":"15.06385283","REF_FRAME":"TEME","GP_ID":"214990301","ECCENTRICITY":"0.00017870","ELEMENT_SET_NO":"999","TIME_SYSTEM":"UTC","NORAD_CAT_ID":"46542","MEAN_MOTION_DOT":"0.00002301","MEAN_ELEMENT_THEORY":"SGP4","RA_OF_ASC_NODE":"357.4846","CENTER_NAME":"EARTH","LAUNCH_DATE":"2020-10-06","APOAPSIS":"548.496","EPHEMERIS_TYPE":"0","OBJECT_ID":"2020-070L","REV_AT_EPOCH":"11212","FILE":"3609209","PERIAPSIS":"546.021","SEMIMAJOR_AXIS":"6925.394","SITE":"AFETR","MEAN_MOTION_DDOT":"0.0000000000000","DECAY_DATE":null,"CLASSIFICATION_TYPE":"U","ARG_OF_PERICENTER":"43.0815","COUNTRY_CODE":"US"},{"MEAN_MOTION_DOT":"0.00003230","TIME_SYSTEM":"UTC","NORAD_CAT_ID":"46543","MEAN_ELEMENT_THEORY":"SGP4","RA_OF_ASC_NODE":"356.9496","CENTER_NAME":"EARTH","LAUNCH_DATE":"2020-10-06","APOAPSIS":"548.419","OBJECT_ID":"2020-070M","EPHEMERIS_TYPE":"0","REV_AT_EPOCH":"11214","FILE":"3609636","SEMIMAJOR_AXIS":"6925.357","PERIAPSIS":"546.025","SITE":"AFETR","MEAN_MOTION_DDOT":"0.0000000000000","DECAY_DATE":null,"CLASSIFICATION_TYPE":"U","ARG_OF_PERICENTER":"48.5152","COUNTRY_CODE":"US","OBJECT_TYPE":"PAYLOAD","TLE_LINE1":"1 46543U 20070M   22286.62653794  .00003230  00000-0  23569-3 0  9999","MEAN_ANOMALY":"311.5986","PERIOD":"95.592","TLE_LINE2":"2 46543  53.0563 356.9496 0001729  48.5152 311.5986 15.06397225112144","INCLINATION":"53.0563","EPOCH":"2022-10-13T15:02:12.878016","BSTAR":"0.00023569000000","OBJECT_NAME":"STARLINK-1693","MEAN_MOTION":"15.06397225","RCS_SIZE":"LARGE","REF_FRAME":"TEME","GP_ID":"215024867","ELEMENT_SET_NO":"999","ECCENTRICITY":"0.00017290"},{"SEMIMAJOR_AXIS":"6925.405","PERIAPSIS":"546.089","SITE":"AFETR","EPHEMERIS_TYPE":"0","OBJECT_ID":"2020-070N","REV_AT_EPOCH":"11232","FILE":"3609209","ARG_OF_PERICENTER":"53.7677","COUNTRY_CODE":"US","MEAN_MOTION_DDOT":"0.0000000000000","CLASSIFICATION_TYPE":"U","DECAY_DATE":null,"RA_OF_ASC_NODE":"342.8712","CENTER_NAME":"EARTH","LAUNCH_DATE":"2020-10-06","MEAN_MOTION_DOT":"0.00001733","TIME_SYSTEM":"UTC","NORAD_CAT_ID":"46544","MEAN_ELEMENT_THEORY":"SGP4","APOAPSIS":"548.451","MEAN_MOTION":"15.06381531","RCS_SIZE":"LARGE","EPOCH":"2022-10-13T10:09:37.798560","BSTAR":"0.00013527000000","OBJECT_NAME":"STARLINK-1694","ELEMENT_SET_NO":"999","ECCENTRICITY":"0.00017050","REF_FRAME":"TEME","GP_ID":"214991302","OBJECT_TYPE":"PAYLOAD","TLE_LINE1":"1 46544U 20070N   22286.42335415  .00001733  00000-0  13527-3 0  9994","PERIOD":"95.593","MEAN_ANOMALY":"306.3470","TLE_LINE2":"2 46544  53.0567 342.8712 0001705  53.7677 306.3470 15.06381531112321","INCLINATION":"53.0567"},{"APOAPSIS":"548.539","RA_OF_ASC_NODE":"357.0792","CENTER_NAME":"EARTH","LAUNCH_DATE":"2020-10-06","MEAN_MOTION_DOT":"0.00001743","NORAD_CAT_ID":"46545","TIME_SYSTEM":"UTC","MEAN_ELEMENT_THEORY":"SGP4","ARG_OF_PERICENTER":"50.6750","COUNTRY_CODE":"US","MEAN_MOTION_DDOT":"0.0000000000000","DECAY_DATE":null,"CLASSIFICATION_TYPE":"U","SEMIMAJOR_AXIS":"6925.389","PERIAPSIS":"545.970","SITE":"AFETR","EPHEMERIS_TYPE":"0","OBJECT_ID":"2020-070P","REV_AT_EPOCH":"11213","FILE":"3609636","PERIOD":"95.593","MEAN_ANOMALY":"309.4403","INCLINATION":"53.0555","TLE_LINE2":"2 46545  53.0555 357.0792 0001855  50.6750 309.4403 15.06386706112137","OBJECT_TYPE":"PAYLOAD","TLE_LINE1":"1 46545U 20070P   22286.59704989  .00001743  00000-0  13595-3 0  9995","ECCENTRICITY":"0.00018550","ELEMENT_SET_NO":"999","REF_FRAME":"TEME","GP_ID":"215023868","MEAN_MOTION":"15.06386706","RCS_SIZE":"LARGE","EPOCH":"2022-10-13T14:19:45.110496","BSTAR":"0.00013595000000","OBJECT_NAME":"STARLINK-1696"}];
